IRIDIUM 171             
1 43929U 19002H   24024.47341285  .00000557  00000+0  19193-3 0  9997
2 43929  86.3995 359.3415 0002091  89.7211 270.4225 14.34218818263585
IRIDIUM 170             
1 43930U 19002J   24024.01304974  .00001891  00000+0  29609-3 0  9998
2 43930  86.6116 359.3760 0002401  89.5031 270.6462 14.72234873270495
IRIDIUM 167             
1 43931U 19002K   24023.90892197  .00000041  00000+0  74422-5 0  9996
2 43931  86.3986 359.3827 0002065  88.7877 271.3555 14.34217332263501
IRIDIUM 181             
1 56726U 23068S   24023.61160603  .00000681  00000+0  19544-3 0  9999
2 56726  86.8602  46.1614 0001653 104.4802 255.6583 14.43594025 36138
IRIDIUM 177             
1 56727U 23068T   24024.49018650  .00001206  00000+0  15523-3 0  9998
2 56727  86.1966  24.0409 0002487  93.7132 266.4374 14.80219770 36976
IRIDIUM 174             
1 56728U 23068U   24024.07918236  .00001074  00000+0  13797-3 0  9996
2 56728  86.1974  24.3282 0002441  92.7063 267.4437 14.80211620 36911
IRIDIUM 178             
1 56729U 23068V   24024.07374845  .00000942  00000+0  12060-3 0  9994
2 56729  86.5762  34.9133 0002475  95.5075 264.6429 14.80200509 36918
IRIDIUM 179             
1 56730U 23068W   24024.06830251  .00000958  00000+0  12275-3 0  9998
2 56730  86.6769  37.2211 0002191  92.9484 267.1988 14.80193812 36917
